{"type": "FeatureCollection", "features": [ {"type": "Feature", "properties": {"norad_id": 29750, "name": "FENGYUN 1C DEB", "group": "fengyun-1c-debris", "lat": 72.60982110894656, "lon": -142.28921638298678, "alt_km": 873.4165679521011, "timestamp": "2025-12-04T21:36:16.143960+00:00", "meta": {"OBJECT_NAME": "FENGYUN 1C DEB", "OBJECT_ID": "1999-025AQ", "EPOCH": "2025-12-03T20:23:08.763072", "MEAN_MOTION": 14.0963189, "ECCENTRICITY": 0.00353364, "INCLINATION": 98.7556, "RA_OF_ASC_NODE": 7.2124, "ARG_OF_PERICENTER": 327.1974, "MEAN_ANOMALY": 208.2024, "EPHEMERIS_TYPE": 0, "CLASSIFICATION_TYPE": "U", "NORAD_CAT_ID": 29750, "ELEMENT_SET_NO": 999, "REV_AT_EPOCH": 96948, "BSTAR": 0.00044577223, "MEAN_MOTION_DOT": 7.42e-06, "MEAN_MOTION_DDOT": 0}, "tle": {"line1": "1 29750U 99025AQ  25337.84940698  .00000742  00000+0  44577-3 0  9998", "line2": "2 29750  98.7556   7.2124 0035336 327.1974 208.2024 14.09631890969489"}}, "geometry": {"type": "Point", "coordinates": [-142.28921638298678, 72.60982110894656]}}, {"type": "Feature", "properties": {"norad_id": 29751, "name": "FENGYUN 1C DEB", "group": "fengyun-1c-debris", "lat": -27.8995390781896, "lon": -177.56565276689832, "alt_km": 774.0415217513837, "timestamp": "2025-12-04T21:36:16.143970+00:00", "meta": {"OBJECT_NAME": "FENGYUN 1C DEB", "OBJECT_ID": "1999-025AR", "EPOCH": "2025-12-04T14:29:11.750208", "MEAN_MOTION": 14.2361959, "ECCENTRICITY": 0.00895632, "INCLINATION": 98.5423, "RA_OF_ASC_NODE": 6.7107, "ARG_OF_PERICENTER": 162.7514, "MEAN_ANOMALY": 325.5312, "EPHEMERIS_TYPE": 0, "CLASSIFICATION_TYPE": "U", "NORAD_CAT_ID": 29751, "ELEMENT_SET_NO": 999, "REV_AT_EPOCH": 97957, "BSTAR": 0.00029729147, "MEAN_MOTION_DOT": 6.64e-06, "MEAN_MOTION_DDOT": 0}, "tle": {"line1": "1 29751U 99025AR  25338.60360822  .00000664  00000+0  29729-3 0  9994", "line2": "2 29751  98.5423   6.7107 0089563 162.7514 325.5312 14.23619590979573"}}, "geometry": {"type": "Point", "coordinates": [-177.56565276689832, -27.8995390781896]}}, {"type": "Feature", "properties": {"norad_id": 29754, "name": "FENGYUN 1C DEB", "group": "fengyun-1c-debris", "lat": 70.15842787737228, "lon": -72.68867665858403, "alt_km": 844.6336148287155, "timestamp": "2025-12-04T21:36:16.143981+00:00", "meta": {"OBJECT_NAME": "FENGYUN 1C DEB", "OBJECT_ID": "1999-025AU", "EPOCH": "2025-12-04T12:56:15.180576", "MEAN_MOTION": 14.19098051, "ECCENTRICITY": 0.0035576, "INCLINATION": 98.8852, "RA_OF_ASC_NODE": 81.2585, "ARG_OF_PERICENTER": 263.0047, "MEAN_ANOMALY": 161.098, "EPHEMERIS_TYPE": 0, "CLASSIFICATION_TYPE": "U", "NORAD_CAT_ID": 29754, "ELEMENT_SET_NO": 999, "REV_AT_EPOCH": 97238, "BSTAR": 0.0019855209, "MEAN_MOTION_DOT": 4.134e-05, "MEAN_MOTION_DDOT": 0}, "tle": {"line1": "1 29754U 99025AU  25338.53906459  .00004134  00000+0  19855-2 0  9995", "line2": "2 29754  98.8852  81.2585 0035576 263.0047 161.0980 14.19098051972388"}}, "geometry": {"type": "Point", "coordinates": [-72.68867665858403, 70.15842787737228]}}, {"type": "Feature", "properties": {"norad_id": 29758, "name": "FENGYUN 1C DEB", "group": "fengyun-1c-debris", "lat": 5.279911272088112, "lon": -84.83773070906355, "alt_km": 771.5304926021163, "timestamp": "2025-12-04T21:36:16.143991+00:00", "meta": {"OBJECT_NAME": "FENGYUN 1C DEB", "OBJECT_ID": "1999-025AY", "EPOCH": "2025-12-04T14:12:10.243008", "MEAN_MOTION": 14.40781054, "ECCENTRICITY": 0.00203901, "INCLINATION": 98.8563, "RA_OF_ASC_NODE": 94.0175, "ARG_OF_PERICENTER": 332.8762, "MEAN_ANOMALY": 43.0396, "EPHEMERIS_TYPE": 0, "CLASSIFICATION_TYPE": "U", "NORAD_CAT_ID": 29758, "ELEMENT_SET_NO": 999, "REV_AT_EPOCH": 97554, "BSTAR": 0.0063614988, "MEAN_MOTION_DOT": 0.0002042, "MEAN_MOTION_DDOT": 0}, "tle": {"line1": "1 29758U 99025AY  25338.59178522  .00020420  00000+0  63615-2 0  9996", "line2": "2 29758  98.8563  94.0175 0020390 332.8762  43.0396 14.40781054975542"}}, "geometry": {"type": "Point", "coordinates": [-84.83773070906355, 5.279911272088112]}}, {"type": "Feature", "properties": {"norad_id": 29760, "name": "FENGYUN 1C DEB", "group": "fengyun-1c-debris", "lat": 79.83869804202801, "lon": -139.33462812960423, "alt_km": 873.9596557618524, "timestamp": "2025-12-04T21:36:16.144001+00:00", "meta": {"OBJECT_NAME": "FENGYUN 1C DEB", "OBJECT_ID": "1999-025BA", "EPOCH": "2025-12-04T12:37:10.473024", "MEAN_MOTION": 14.08280458, "ECCENTRICITY": 0.01304297, "INCLINATION": 98.7622, "RA_OF_ASC_NODE": 340.9281, "ARG_OF_PERICENTER": 196.753, "MEAN_ANOMALY": 162.9312, "EPHEMERIS_TYPE": 0, "CLASSIFICATION_TYPE": "U", "NORAD_CAT_ID": 29760, "ELEMENT_SET_NO": 999, "REV_AT_EPOCH": 96977, "BSTAR": 0.00032922938, "MEAN_MOTION_DOT": 5.66e-06, "MEAN_MOTION_DDOT": 0}, "tle": {"line1": "1 29760U 99025BA  25338.52581566  .00000566  00000+0  32923-3 0  9996", "line2": "2 29760  98.7622 340.9281 0130429 196.7530 162.9312 14.08280458969779"}}, "geometry": {"type": "Point", "coordinates": [-139.33462812960423, 79.83869804202801]}}, {"type": "Feature", "properties": {"norad_id": 29762, "name": "FENGYUN 1C DEB", "group": "fengyun-1c-debris", "lat": 20.73235986686666, "lon": -41.382889841807504, "alt_km": 680.3256946860747, "timestamp": "2025-12-04T21:36:16.144011+00:00", "meta": {"OBJECT_NAME": "FENGYUN 1C DEB", "OBJECT_ID": "1999-025BC", "EPOCH": "2025-12-04T10:24:58.399200", "MEAN_MOTION": 14.22552125, "ECCENTRICITY": 0.02045461, "INCLINATION": 98.5785, "RA_OF_ASC_NODE": 321.4384, "ARG_OF_PERICENTER": 359.8038, "MEAN_ANOMALY": 154.3624, "EPHEMERIS_TYPE": 0, "CLASSIFICATION_TYPE": "U", "NORAD_CAT_ID": 29762, "ELEMENT_SET_NO": 999, "REV_AT_EPOCH": 97830, "BSTAR": 0.00075646469, "MEAN_MOTION_DOT": 2.046e-05, "MEAN_MOTION_DDOT": 0}, "tle": {"line1": "1 29762U 99025BC  25338.43400925  .00002046  00000+0  75646-3 0  9991", "line2": "2 29762  98.5785 321.4384 0204546 359.8038 154.3624 14.22552125978303"}}, "geometry": {"type": "Point", "coordinates": [-41.382889841807504, 20.73235986686666]}}, {"type": "Feature", "properties": {"norad_id": 29763, "name": "FENGYUN 1C DEB", "group": "fengyun-1c-debris", "lat": -58.17244779259451, "lon": -27.07773873539029, "alt_km": 885.5657905184053, "timestamp": "2025-12-04T21:36:16.144022+00:00", "meta": {"OBJECT_NAME": "FENGYUN 1C DEB", "OBJECT_ID": "1999-025BD", "EPOCH": "2025-12-04T12:16:08.634720", "MEAN_MOTION": 14.0786891, "ECCENTRICITY": 0.01270151, "INCLINATION": 98.7602, "RA_OF_ASC_NODE": 318.1606, "ARG_OF_PERICENTER": 203.7753, "MEAN_ANOMALY": 285.2057, "EPHEMERIS_TYPE": 0, "CLASSIFICATION_TYPE": "U", "NORAD_CAT_ID": 29763, "ELEMENT_SET_NO": 999, "REV_AT_EPOCH": 96934, "BSTAR": 0.0002076644, "MEAN_MOTION_DOT": 3.36e-06, "MEAN_MOTION_DDOT": 0}, "tle": {"line1": "1 29763U 99025BD  25338.51121105  .00000336  00000+0  20766-3 0  9994", "line2": "2 29763  98.7602 318.1606 0127015 203.7753 285.2057 14.07868910969343"}}, "geometry": {"type": "Point", "coordinates": [-27.07773873539029, -58.17244779259451]}}, {"type": "Feature", "properties": {"norad_id": 29765, "name": "FENGYUN 1C DEB", "group": "fengyun-1c-debris", "lat": -16.951864716371844, "lon": 0.04727095377332938, "alt_km": 919.6335086686922, "timestamp": "2025-12-04T21:36:16.144032+00:00", "meta": {"OBJECT_NAME": "FENGYUN 1C DEB", "OBJECT_ID": "1999-025BF", "EPOCH": "2025-12-04T13:43:09.136992", "MEAN_MOTION": 14.02149351, "ECCENTRICITY": 0.00595825, "INCLINATION": 98.8309, "RA_OF_ASC_NODE": 357.013, "ARG_OF_PERICENTER": 115.2297, "MEAN_ANOMALY": 10.7015, "EPHEMERIS_TYPE": 0, "CLASSIFICATION_TYPE": "U", "NORAD_CAT_ID": 29765, "ELEMENT_SET_NO": 999, "REV_AT_EPOCH": 96636, "BSTAR": 0.00025606032, "MEAN_MOTION_DOT": 3.55e-06, "MEAN_MOTION_DDOT": 0}, "tle": {"line1": "1 29765U 99025BF  25338.57163353  .00000355  00000+0  25606-3 0  9992", "line2": "2 29765  98.8309 357.0130 0059582 115.2297  10.7015 14.02149351966367"}}, "geometry": {"type": "Point", "coordinates": [0.04727095377332938, -16.951864716371844]}}, {"type": "Feature", "properties": {"norad_id": 29766, "name": "FENGYUN 1C DEB", "group": "fengyun-1c-debris", "lat": -79.10173366440121, "lon": -18.503539127313225, "alt_km": 821.7346133087785, "timestamp": "2025-12-04T21:36:16.144042+00:00", "meta": {"OBJECT_NAME": "FENGYUN 1C DEB", "OBJECT_ID": "1999-025BG", "EPOCH": "2025-12-04T08:52:04.027584", "MEAN_MOTION": 13.96992458, "ECCENTRICITY": 0.01468512, "INCLINATION": 98.6838, "RA_OF_ASC_NODE": 288.4576, "ARG_OF_PERICENTER": 311.4556, "MEAN_ANOMALY": 178.5873, "EPHEMERIS_TYPE": 0, "CLASSIFICATION_TYPE": "U", "NORAD_CAT_ID": 29766, "ELEMENT_SET_NO": 999, "REV_AT_EPOCH": 95687, "BSTAR": 0.0031427047, "MEAN_MOTION_DOT": 4.76e-05, "MEAN_MOTION_DDOT": 0}, "tle": {"line1": "1 29766U 99025BG  25338.36949106  .00004760  00000+0  31427-2 0  9999", "line2": "2 29766  98.6838 288.4576 0146851 311.4556 178.5873 13.96992458956874"}}, "geometry": {"type": "Point", "coordinates": [-18.503539127313225, -79.10173366440121]}}, {"type": "Feature", "properties": {"norad_id": 29767, "name": "FENGYUN 1C DEB", "group": "fengyun-1c-debris", "lat": -11.653978103395895, "lon": -49.943115514446745, "alt_km": 900.7150997838407, "timestamp": "2025-12-04T21:36:16.144053+00:00", "meta": {"OBJECT_NAME": "FENGYUN 1C DEB", "OBJECT_ID": "1999-025BH", "EPOCH": "2025-12-04T15:05:20.378112", "MEAN_MOTION": 14.03226232, "ECCENTRICITY": 0.0333089, "INCLINATION": 98.1986, "RA_OF_ASC_NODE": 308.1077, "ARG_OF_PERICENTER": 84.2856, "MEAN_ANOMALY": 337.2289, "EPHEMERIS_TYPE": 0, "CLASSIFICATION_TYPE": "U", "NORAD_CAT_ID": 29767, "ELEMENT_SET_NO": 999, "REV_AT_EPOCH": 95486, "BSTAR": 0.0039322027, "MEAN_MOTION_DOT": 0.00010004, "MEAN_MOTION_DDOT": 0}, "tle": {"line1": "1 29767U 99025BH  25338.62870808  .00010004  00000+0  39322-2 0  9991", "line2": "2 29767  98.1986 308.1077 0333089  84.2856 337.2289 14.03226232954860"}}, "geometry": {"type": "Point", "coordinates": [-49.943115514446745, -11.653978103395895]}}]}